NOAA 1                  
1 04793U 70106A   26061.94963508 -.00000025  00000+0  11318-3 0  9990
2 04793 101.3528 101.2639 0031675 194.0786 239.4217 12.54049093527373
NOAA 2 (ITOS-D)         
1 06235U 72082A   26061.95040220 -.00000026  00000+0  12739-3 0  9995
2 06235 102.0168  79.3269 0004011  17.9624  41.1766 12.53211587441646
NOAA 3                  
1 06920U 73086A   26061.97600461 -.00000030  00000+0  12048-3 0  9990
2 06920 102.2909  74.8891 0006192 321.5860  93.7945 12.40391567368734
NOAA 4                  
1 07529U 74089A   26062.00296267 -.00000035  00000+0  68890-4 0  9992
2 07529 102.0074  73.6626 0009170  41.3463 346.8782 12.53201519346221
NOAA 5                  
1 09057U 76077A   26061.97210293 -.00000035  00000+0  83768-4 0  9990
2 09057 102.2949  47.4439 0009758 172.9193 254.9478 12.37828185241339
TIROS N                 
1 11060U 78096A   26061.90303705  .00000194  00000+0  11214-3 0  9995
2 11060  98.4641  87.7239 0010357 184.4023 175.7065 14.19334732663672
NOAA 6                  
1 11416U 79057A   26061.92953987  .00000375  00000+0  14603-3 0  9999
2 11416  98.5761  92.1239 0009364 207.4216 152.6476 14.35427447435713
NOAA 7                  
1 12553U 81059A   26061.81560610  .00000051  00000+0  46493-4 0  9996
2 12553  98.8074 129.9245 0010991 207.7231 152.3359 14.17771505309679
NOAA 8                  
1 13923U 83022A   26061.90611631  .00000185  00000+0  89393-4 0  9994
2 13923  98.7374  74.6812 0014295 205.7408 154.3063 14.29763635235887
NOAA 9                  
1 15427U 84123A   26062.00051308  .00000129  00000+0  87416-4 0  9991
2 15427  99.1102  86.1252 0013727 291.9955  87.6612 14.17036222128387
NOAA 10                 
1 16969U 86073A   26061.96126255  .00000197  00000+0  95354-4 0  9992
2 16969  98.6993  55.3677 0011229 310.6014 103.6893 14.29140784 54245
NOAA 11                 
1 19531U 88089A   26061.86084371  .00000071  00000+0  57477-4 0  9995
2 19531  98.6088  11.1319 0010036 240.8341 119.1830 14.15818991932439
NOAA 12                 
1 21263U 91032A   26061.95076283  .00000152  00000+0  80821-4 0  9994
2 21263  98.6144  52.0573 0013312 343.6004  16.4744 14.26714841809810
NOAA 13                 
1 22739U 93050A   26061.85491360  .00000142  00000+0  97607-4 0  9990
2 22739  98.6924   9.7931 0010559  74.5748 285.6591 14.13633628678359
NOAA 14                 
1 23455U 94089A   26061.89211552  .00000085  00000+0  65678-4 0  9995
2 23455  98.5010  36.4303 0010144  34.9436 325.2402 14.14653340608173
NOAA 15                 
1 25338U 98030A   26061.96797914  .00000172  00000+0  87956-4 0  9996
2 25338  98.5168  85.4247 0009220 302.1690  57.8596 14.27109310446141
NOAA 16                 
1 26536U 00055A   26061.94602584  .00000130  00000+0  90191-4 0  9992
2 26536  98.4707  81.8001 0009355 243.5752 116.4463 14.13895836608712
