[{"OBJECT_NAME":"NOAA 1","OBJECT_ID":"1970-106A","EPOCH":"2026-03-02T22:47:28.470912","MEAN_MOTION":12.54049093,"ECCENTRICITY":0.00316752,"INCLINATION":101.3528,"RA_OF_ASC_NODE":101.2639,"ARG_OF_PERICENTER":194.0786,"MEAN_ANOMALY":239.4217,"EPHEMERIS_TYPE":0,"CLASSIFICATION_TYPE":"U","NORAD_CAT_ID":4793,"ELEMENT_SET_NO":999,"REV_AT_EPOCH":52737,"BSTAR":0.00011318288,"MEAN_MOTION_DOT":-2.5e-7,"MEAN_MOTION_DDOT":0},{"OBJECT_NAME":"NOAA 2 (ITOS-D)","OBJECT_ID":"1972-082A","EPOCH":"2026-03-02T22:48:34.750080","MEAN_MOTION":12.53211587,"ECCENTRICITY":0.00040116,"INCLINATION":102.0168,"RA_OF_ASC_NODE":79.3269,"ARG_OF_PERICENTER":17.9624,"MEAN_ANOMALY":41.1766,"EPHEMERIS_TYPE":0,"CLASSIFICATION_TYPE":"U","NORAD_CAT_ID":6235,"ELEMENT_SET_NO":999,"REV_AT_EPOCH":44164,"BSTAR":0.00012738575,"MEAN_MOTION_DOT":-2.6e-7,"MEAN_MOTION_DDOT":0},{"OBJECT_NAME":"NOAA 3","OBJECT_ID":"1973-086A","EPOCH":"2026-03-02T23:25:26.798304","MEAN_MOTION":12.40391567,"ECCENTRICITY":0.00061923,"INCLINATION":102.2909,"RA_OF_ASC_NODE":74.8891,"ARG_OF_PERICENTER":321.586,"MEAN_ANOMALY":93.7945,"EPHEMERIS_TYPE":0,"CLASSIFICATION_TYPE":"U","NORAD_CAT_ID":6920,"ELEMENT_SET_NO":999,"REV_AT_EPOCH":36873,"BSTAR":0.00012047548,"MEAN_MOTION_DOT":-3.0e-7,"MEAN_MOTION_DDOT":0},{"OBJECT_NAME":"NOAA 4","OBJECT_ID":"1974-089A","EPOCH":"2026-03-03T00:04:15.974688","MEAN_MOTION":12.53201519,"ECCENTRICITY":0.00091707,"INCLINATION":102.0074,"RA_OF_ASC_NODE":73.6626,"ARG_OF_PERICENTER":41.3463,"MEAN_ANOMALY":346.8782,"EPHEMERIS_TYPE":0,"CLASSIFICATION_TYPE":"U","NORAD_CAT_ID":7529,"ELEMENT_SET_NO":999,"REV_AT_EPOCH":34622,"BSTAR":6.888954e-5,"MEAN_MOTION_DOT":-3.5e-7,"MEAN_MOTION_DDOT":0},{"OBJECT_NAME":"NOAA 5","OBJECT_ID":"1976-077A","EPOCH":"2026-03-02T23:19:49.693152","MEAN_MOTION":12.37828185,"ECCENTRICITY":0.00097589,"INCLINATION":102.2949,"RA_OF_ASC_NODE":47.4439,"ARG_OF_PERICENTER":172.9193,"MEAN_ANOMALY":254.9478,"EPHEMERIS_TYPE":0,"CLASSIFICATION_TYPE":"U","NORAD_CAT_ID":9057,"ELEMENT_SET_NO":999,"REV_AT_EPOCH":24133,"BSTAR":8.376847e-5,"MEAN_MOTION_DOT":-3.5e-7,"MEAN_MOTION_DDOT":0},{"OBJECT_NAME":"TIROS N","OBJECT_ID":"1978-096A","EPOCH":"2026-03-02T21:40:22.401120","MEAN_MOTION":14.19334732,"ECCENTRICITY":0.00103572,"INCLINATION":98.4641,"RA_OF_ASC_NODE":87.7239,"ARG_OF_PERICENTER":184.4023,"MEAN_ANOMALY":175.7065,"EPHEMERIS_TYPE":0,"CLASSIFICATION_TYPE":"U","NORAD_CAT_ID":11060,"ELEMENT_SET_NO":999,"REV_AT_EPOCH":66367,"BSTAR":0.00011213877,"MEAN_MOTION_DOT":1.94e-6,"MEAN_MOTION_DDOT":0},{"OBJECT_NAME":"NOAA 6","OBJECT_ID":"1979-057A","EPOCH":"2026-03-02T22:18:32.244768","MEAN_MOTION":14.35427447,"ECCENTRICITY":0.00093641,"INCLINATION":98.5761,"RA_OF_ASC_NODE":92.1239,"ARG_OF_PERICENTER":207.4216,"MEAN_ANOMALY":152.6476,"EPHEMERIS_TYPE":0,"CLASSIFICATION_TYPE":"U","NORAD_CAT_ID":11416,"ELEMENT_SET_NO":999,"REV_AT_EPOCH":43571,"BSTAR":0.0001460285,"MEAN_MOTION_DOT":3.75e-6,"MEAN_MOTION_DDOT":0},{"OBJECT_NAME":"NOAA 7","OBJECT_ID":"1981-059A","EPOCH":"2026-03-02T19:34:28.367040","MEAN_MOTION":14.17771505,"ECCENTRICITY":0.00109913,"INCLINATION":98.8074,"RA_OF_ASC_NODE":129.9245,"ARG_OF_PERICENTER":207.7231,"MEAN_ANOMALY":152.3359,"EPHEMERIS_TYPE":0,"CLASSIFICATION_TYPE":"U","NORAD_CAT_ID":12553,"ELEMENT_SET_NO":999,"REV_AT_EPOCH":30967,"BSTAR":4.6492954e-5,"MEAN_MOTION_DOT":5.1e-7,"MEAN_MOTION_DDOT":0},{"OBJECT_NAME":"NOAA 8","OBJECT_ID":"1983-022A","EPOCH":"2026-03-02T21:44:48.449184","MEAN_MOTION":14.29763635,"ECCENTRICITY":0.00142956,"INCLINATION":98.7374,"RA_OF_ASC_NODE":74.6812,"ARG_OF_PERICENTER":205.7408,"MEAN_ANOMALY":154.3063,"EPHEMERIS_TYPE":0,"CLASSIFICATION_TYPE":"U","NORAD_CAT_ID":13923,"ELEMENT_SET_NO":999,"REV_AT_EPOCH":23588,"BSTAR":8.9392555e-5,"MEAN_MOTION_DOT":1.85e-6,"MEAN_MOTION_DDOT":0},{"OBJECT_NAME":"NOAA 9","OBJECT_ID":"1984-123A","EPOCH":"2026-03-03T00:00:44.330112","MEAN_MOTION":14.17036222,"ECCENTRICITY":0.00137277,"INCLINATION":99.1102,"RA_OF_ASC_NODE":86.1252,"ARG_OF_PERICENTER":291.9955,"MEAN_ANOMALY":87.6612,"EPHEMERIS_TYPE":0,"CLASSIFICATION_TYPE":"U","NORAD_CAT_ID":15427,"ELEMENT_SET_NO":999,"REV_AT_EPOCH":12838,"BSTAR":8.7415806e-5,"MEAN_MOTION_DOT":1.29e-6,"MEAN_MOTION_DDOT":0},{"OBJECT_NAME":"NOAA 10","OBJECT_ID":"1986-073A","EPOCH":"2026-03-02T23:04:13.084320","MEAN_MOTION":14.29140784,"ECCENTRICITY":0.00112292,"INCLINATION":98.6993,"RA_OF_ASC_NODE":55.3677,"ARG_OF_PERICENTER":310.6014,"MEAN_ANOMALY":103.6893,"EPHEMERIS_TYPE":0,"CLASSIFICATION_TYPE":"U","NORAD_CAT_ID":16969,"ELEMENT_SET_NO":999,"REV_AT_EPOCH":5424,"BSTAR":9.5353636e-5,"MEAN_MOTION_DOT":1.97e-6,"MEAN_MOTION_DDOT":0},{"OBJECT_NAME":"NOAA 11","OBJECT_ID":"1988-089A","EPOCH":"2026-03-02T20:39:36.896544","MEAN_MOTION":14.15818991,"ECCENTRICITY":0.00100362,"INCLINATION":98.6088,"RA_OF_ASC_NODE":11.1319,"ARG_OF_PERICENTER":240.8341,"MEAN_ANOMALY":119.183,"EPHEMERIS_TYPE":0,"CLASSIFICATION_TYPE":"U","NORAD_CAT_ID":19531,"ELEMENT_SET_NO":999,"REV_AT_EPOCH":93243,"BSTAR":5.7476628e-5,"MEAN_MOTION_DOT":7.1e-7,"MEAN_MOTION_DDOT":0},{"OBJECT_NAME":"NOAA 12","OBJECT_ID":"1991-032A","EPOCH":"2026-03-02T22:49:05.908512","MEAN_MOTION":14.26714841,"ECCENTRICITY":0.0013312,"INCLINATION":98.6144,"RA_OF_ASC_NODE":52.0573,"ARG_OF_PERICENTER":343.6004,"MEAN_ANOMALY":16.4744,"EPHEMERIS_TYPE":0,"CLASSIFICATION_TYPE":"U","NORAD_CAT_ID":21263,"ELEMENT_SET_NO":999,"REV_AT_EPOCH":80981,"BSTAR":8.0820841e-5,"MEAN_MOTION_DOT":1.52e-6,"MEAN_MOTION_DDOT":0},{"OBJECT_NAME":"NOAA 13","OBJECT_ID":"1993-050A","EPOCH":"2026-03-02T20:31:04.535040","MEAN_MOTION":14.13633628,"ECCENTRICITY":0.00105593,"INCLINATION":98.6924,"RA_OF_ASC_NODE":9.7931,"ARG_OF_PERICENTER":74.5748,"MEAN_ANOMALY":285.6591,"EPHEMERIS_TYPE":0,"CLASSIFICATION_TYPE":"U","NORAD_CAT_ID":22739,"ELEMENT_SET_NO":999,"REV_AT_EPOCH":67835,"BSTAR":9.7606581e-5,"MEAN_MOTION_DOT":1.42e-6,"MEAN_MOTION_DDOT":0},{"OBJECT_NAME":"NOAA 14","OBJECT_ID":"1994-089A","EPOCH":"2026-03-02T21:24:38.780928","MEAN_MOTION":14.1465334,"ECCENTRICITY":0.0010144,"INCLINATION":98.501,"RA_OF_ASC_NODE":36.4303,"ARG_OF_PERICENTER":34.9436,"MEAN_ANOMALY":325.2402,"EPHEMERIS_TYPE":0,"CLASSIFICATION_TYPE":"U","NORAD_CAT_ID":23455,"ELEMENT_SET_NO":999,"REV_AT_EPOCH":60817,"BSTAR":6.5677587e-5,"MEAN_MOTION_DOT":8.5e-7,"MEAN_MOTION_DDOT":0},{"OBJECT_NAME":"NOAA 15","OBJECT_ID":"1998-030A","EPOCH":"2026-03-02T23:13:53.397696","MEAN_MOTION":14.2710931,"ECCENTRICITY":0.00092209,"INCLINATION":98.5168,"RA_OF_ASC_NODE":85.4247,"ARG_OF_PERICENTER":302.169,"MEAN_ANOMALY":57.8596,"EPHEMERIS_TYPE":0,"CLASSIFICATION_TYPE":"U","NORAD_CAT_ID":25338,"ELEMENT_SET_NO":999,"REV_AT_EPOCH":44614,"BSTAR":8.7955832e-5,"MEAN_MOTION_DOT":1.72e-6,"MEAN_MOTION_DDOT":0},{"OBJECT_NAME":"NOAA 16","OBJECT_ID":"2000-055A","EPOCH":"2026-03-02T22:42:16.632576","MEAN_MOTION":14.13895836,"ECCENTRICITY":0.00093553,"INCLINATION":98.4707,"RA_OF_ASC_NODE":81.8001,"ARG_OF_PERICENTER":243.5752,"MEAN_ANOMALY":116.4463,"EPHEMERIS_TYPE":0,"CLASSIFICATION_TYPE":"U","NORAD_CAT_ID":26536,"ELEMENT_SET_NO":999,"REV_AT_EPOCH":60871,"BSTAR":9.0190525e-5,"MEAN_MOTION_DOT":1.3e-6,"MEAN_MOTION_DDOT":0}]
